
STARLINK-3546           
1 51718U 22016E   25063.50904435  .00000087  00000+0  23560-4 0  9993
2 51718  53.2165 190.9270 0001115  94.6814 265.4305 15.08837688168604
STARLINK-3540           
1 51719U 22016F   25063.52375143  .00000386  00000+0  42294-4 0  9991
2 51719  53.2170 190.9293 0001178  54.9367 305.1736 15.08865907168602
STARLINK-3526           
1 51720U 22016G   25062.64151924  .00001049  00000+0  83998-4 0  9997
2 51720  53.2175 194.7914 0001435  99.4969 260.6185 15.08839926168468
STARLINK-3524           
1 51721U 22016H   25063.51369427  .00002115  00000+0  15090-3 0  9996
2 51721  53.2178 190.9156 0001276  91.5836 268.5303 15.08840814168677
STARLINK-3535           
1 51722U 22016J   25063.49800787  .00000631  00000+0  57765-4 0  9990
2 51722  53.2170 190.9753 0001326  94.8620 265.2524 15.08835487168608
STARLINK-3529           
1 51724U 22016L   25063.49064315  .00001030  00000+0  82799-4 0  9990
2 51724  53.2159 191.0084 0001152  86.3746 273.7378 15.08839986168607
STARLINK-3522           
1 51725U 22016M   25062.64056970 -.00000549  00000+0 -16391-4 0  9996
2 51725  53.2162 194.8238 0001327  68.3642 291.7492 15.08832878167400
STARLINK-3527           
1 51726U 22016N   25063.53205291  .00003831  00000+0  25877-3 0  9991
2 51726  53.2182 180.8220 0001553  98.9697 261.1470 15.08820972168757
STARLINK-3532           
1 51727U 22016P   25062.63320268 -.00000624  00000+0 -21085-4 0  9991
2 51727  53.2166 194.8579 0001384  94.9965 265.1185 15.08845731168474
STARLINK-3448           
1 51728U 22016Q   25062.59277304  .00461488  00000+0  48169-2 0  9996
2 51728  53.2058 170.9054 0001671  66.0782 294.0409 15.62478269167741
STARLINK-3523           
1 51729U 22016R   25062.54212637 -.00000129  00000+0  99542-5 0  9996
2 51729  53.2163 185.2680 0001286  83.9050 276.2088 15.08837149168675
STARLINK-3514           
1 51731U 22016T   25063.52836972 -.00001268  00000+0 -61611-4 0  9993
2 51731  53.2166 180.8386 0001199 111.5423 248.5697 15.08823606168794
STARLINK-3518           
1 51732U 22016U   25062.65252835  .00000744  00000+0  64844-4 0  9994
2 51732  53.2179 184.7713 0001448  98.3808 261.7349 15.08836029168695
STARLINK-3525           
1 51733U 22016V   25062.59460485  .00000183  00000+0  29559-4 0  9991
2 51733  53.2170 185.0413 0001469  95.6155 264.5005 15.08841872167541
STARLINK-3450           
1 51734U 22016W   25062.64148559  .00000398  00000+0  43122-4 0  9993
2 51734  53.2171 184.8206 0001340  90.6508 269.4638 15.08838390167542
STARLINK-3517           
1 51735U 22016X   25063.50996703  .00001546  00000+0  11521-3 0  9995
2 51735  53.2183 180.9230 0001380  90.1067 270.0083 15.08842151168799
STARLINK-3447           
1 51736U 22016Y   25063.50357424  .00001409  00000+0  10658-3 0  9995
2 51736  53.2179 181.0374 0001329  96.9458 263.1685 15.08843652168807
STARLINK-3509           
1 51737U 22016Z   25062.64517089  .00001102  00000+0  87301-4 0  9995
2 51737  53.2197 184.8049 0001444  97.3127 262.8029 15.08836204167547
STARLINK-3515           
1 51738U 22016AA  25063.48788709  .00000839  00000+0  70770-4 0  9996
2 51738  53.2169 181.0217 0001233  95.4383 264.6749 15.08842228168781
STARLINK-3516           
1 51739U 22016AB  25063.49892619  .00001059  00000+0  84608-4 0  9994
2 51739  53.2164 180.9710 0001292  96.4993 263.6147 15.08842754168804
STARLINK-3500           
1 51740U 22016AC  25062.61941191  .00002955  00000+0  20369-3 0  9998
2 51740  53.2161 184.9191 0001429  89.8905 270.2251 15.08840473167547
STARLINK-3520           
1 51741U 22016AD  25063.49252408  .00001069  00000+0  85225-4 0  9990
2 51741  53.2170 181.0098 0001221  79.8039 280.3091 15.08838522168793
STARLINK-3521           
1 51742U 22016AE  25063.49527236  .00000410  00000+0  43848-4 0  9999
2 51742  53.2185 181.1814 0001261 101.5074 258.6060 15.08838370168800
STARLINK-3512           
1 51743U 22016AF  25063.49615510  .00002047  00000+0  14664-3 0  9994
2 51743  53.2169 170.9071 0001379  79.4866 280.6282 15.08839112168958
STARLINK-3452           
1 51744U 22016AG  25062.61204903  .00003537  00000+0  24030-3 0  9991
2 51744  53.2167 184.9833 0001159  90.3638 269.7487 15.08825216168600
STARLINK-3449           
1 51745U 22016AH  25063.48420448 -.00000011  00000+0  17398-4 0  9997
2 51745  53.2162 181.0378 0001198  85.3245 274.7884 15.08838114168809
STARLINK-3502           
1 51746U 22016AJ  25062.57344729  .00001182  00000+0  92332-4 0  9994
2 51746  53.2166 175.1341 0001345 102.8365 257.2778 15.08838399168791
STARLINK-3446           
1 51747U 22016AK  25062.61668364  .00000887  00000+0  73782-4 0  9993
2 51747  53.2160 184.9818 0001304  90.1672 269.9469 15.08841067168678
STARLINK-3501           
1 51748U 22016AL  25062.56512958  .00000834  00000+0  70470-4 0  9998
2 51748  53.2175 175.1642 0001503  86.7448 273.3716 15.08841037168744
STARLINK-3451           
1 51749U 22016AM  25062.65991281  .00000364  00000+0  40938-4 0  9993
2 51749  53.2171 184.9218 0001461  87.1944 272.9215 15.08838521167547
STARLINK-3505           
1 51750U 22016AN  25062.55872385  .00003375  00000+0  23007-3 0  9999
2 51750  53.2163 175.2018 0000931  94.7923 265.3175 15.08834166168793
STARLINK-3506           
1 51751U 22016AP  25063.49711489  .00001126  00000+0  88779-4 0  9991
2 51751  53.2180 170.9907 0001496  86.4635 273.6529 15.08850513168932
STARLINK-3511           
1 51752U 22016AQ  25062.54767619  .00000727  00000+0  63769-4 0  9991
2 51752  53.2172 175.1757 0001318  88.1818 271.9325 15.08840578167674
STARLINK-3507           
1 51753U 22016AR  25062.62865084  .00000420  00000+0  44479-4 0  9993
2 51753  53.2181 174.8893 0001492  88.4206 271.6957 15.08832678168759
STARLINK-3457           
1 51754U 22016AS  25062.52462155  .00000547  00000+0  52471-4 0  9996
2 51754  53.2172 175.1050 0001427  92.2012 267.9143 15.08830211168795
STARLINK-3460           
1 51755U 22016AT  25063.54400936  .00006663  00000+0  43623-3 0  9992
2 51755  53.2152 170.7671 0001303  75.6063 284.5074 15.08848868168940
STARLINK-3513           
1 51756U 22016AU  25062.58720663  .00000825  00000+0  69918-4 0  9998
2 51756  53.2189 175.0645 0001565 109.0857 251.0305 15.08840850168751
STARLINK-3459           
1 51757U 22016AV  25062.58448361  .00001106  00000+0  87581-4 0  9990
2 51757  53.2179 175.0868 0001507 105.9730 254.1428 15.08840855168800
STARLINK-3458           
1 51758U 22016AW  25063.50350616 -.00000849  00000+0 -35226-4 0  9993
2 51758  53.2183 170.9036 0001549  90.8111 269.3059 15.08853868168961
STARLINK-3456           
1 51759U 22016AX  25062.57984447  .00000923  00000+0  76078-4 0  9996
2 51759  53.2159 175.0985 0001088  96.3281 263.7835 15.08840367168826
STARLINK-3622           
1 51768U 22017A   25063.53758170  .00002024  00000+0  14520-3 0  9993
2 51768  53.2172 200.7981 0001095  72.5317 287.5795 15.08843850168174
STARLINK-3621           
1 51769U 22017B   25062.66908521  .00000390  00000+0  42553-4 0  9996
2 51769  53.2175 204.6960 0000602  97.6339 262.4722 15.08841160166591
STARLINK-3612           
1 51770U 22017C   25063.53389206 -.00000088  00000+0  12577-4 0  9996
2 51770  53.2166 200.8140 0001516  89.2041 270.9125 15.08835520168173
STARLINK-3614           
1 51771U 22017D   25062.66540176  .00000338  00000+0  39302-4 0  9997
2 51771  53.2166 204.7023 0001309  87.5359 272.5783 15.08839065166590
STARLINK-3623           
1 51772U 22017E   25063.51916287  .00000604  00000+0  56062-4 0  9991
2 51772  53.2158 200.8799 0001308  89.5266 270.5876 15.08840228168223
STARLINK-3624           
1 51773U 22017F   25063.52379513 -.00000375  00000+0 -54855-5 0  9994
2 51773  53.2164 200.8298 0001327  90.3957 269.7187 15.08841753168187
STARLINK-3629           
1 51774U 22017G   25063.37933211  .00002944  00000+0  20296-3 0  9991
2 51774  53.2164 201.5071 0001218  78.6339 281.4790 15.08844459168162
STARLINK-3620           
1 51775U 22017H   25062.66173171 -.00000794  00000+0 -31785-4 0  9993
2 51775  53.2176 204.7290 0001205  91.6092 268.5038 15.08841074166597
STARLINK-3608           
1 51776U 22017J   25062.71325133  .00004743  00000+0  31587-3 0  9992
2 51776  53.2168 204.4951 0001269 103.2508 256.8626 15.08843115166560
STARLINK-3625           
1 51777U 22017K   25063.51275871  .00001169  00000+0  91537-4 0  9996
2 51777  53.2166 200.8811 0001340  87.8094 272.3051 15.08841979168182
STARLINK-3615           
1 51778U 22017L   25062.65527604  .00000569  00000+0  53833-4 0  9995
2 51778  53.2179 194.6331 0001288  95.4304 264.6835 15.08834859166545
STARLINK-3611           
1 51779U 22017M   25062.71421119  .00001367  00000+0  10397-3 0  9991
2 51779  53.2169 204.5435 0001315  86.6034 273.5108 15.08838973166569
STARLINK-3617           
1 51780U 22017N   25062.69851769 -.00008292  00000+0 -50298-3 0  9998
2 51780  53.2184 204.5559 0000974  95.0910 265.0194 15.08879522166412
STARLINK-3580           
1 51781U 22017P   25063.36460500  .00000617  00000+0  56851-4 0  9996
2 51781  53.2180 201.5365 0001296  85.8131 274.3009 15.08841013168167
STARLINK-3616           
1 51782U 22017Q   25063.40050454  .00000757  00000+0  65667-4 0  9995
2 51782  53.2169 211.5679 0001282  81.7574 278.3564 15.08839935168019
STARLINK-3628           
1 51783U 22017R   25062.70685319  .00000434  00000+0  45385-4 0  9999
2 51783  53.2168 204.5756 0001354  81.0286 279.0859 15.08835523166416
STARLINK-3632           
1 51784U 22017S   25062.85216483  .00000931  00000+0  76561-4 0  9990
2 51784  53.2167 213.8755 0001273  92.0031 268.1107 15.08837975166292
STARLINK-3646           
1 51785U 22017T   25062.82828372  .00000581  00000+0  54607-4 0  9992
2 51785  53.2186 203.9541 0001636  92.1187 267.9992 15.08833432166432
